{
  "type": "FeatureCollection",
  "features": [
    {
      "type": "Feature",
      "properties": {
        "norad_id": 24946,
        "name": "IRIDIUM 33",
        "group": "iridium-33-debris",
        "lat": -7.094721116090339,
        "lon": -113.49474055739555,
        "alt_km": 773.4261269011531,
        "timestamp": "2025-12-17T21:39:46.074654+00:00",
        "meta_object_name": "IRIDIUM 33",
        "meta_object_id": "1997-051C",
        "meta_epoch": "2025-12-17T14:06:00.693792",
        "meta_mean_motion": 14.35040862,
        "meta_eccentricity": 0.00076164,
        "meta_inclination": 86.3868,
        "meta_ra_of_asc_node": 66.1869,
        "meta_arg_of_pericenter": 183.6428,
        "meta_mean_anomaly": 176.4714,
        "meta_ephemeris_type": 0,
        "meta_classification_type": "U",
        "meta_norad_cat_id": 24946,
        "meta_element_set_no": 999,
        "meta_rev_at_epoch": 47904,
        "meta_bstar": 9.6711512e-05,
        "meta_mean_motion_dot": 2.95e-06,
        "meta_mean_motion_ddot": 0,
        "tle_line1": "1 24946U 97051C   25351.58750803  .00000295  00000+0  96712-4 0  9993",
        "tle_line2": "2 24946  86.3868  66.1869 0007616 183.6428 176.4714 14.35040862479041"
      },
      "geometry": {
        "type": "Point",
        "coordinates": [
          -113.49474055739555,
          -7.094721116090339
        ]
      }
    },
    {
      "type": "Feature",
      "properties": {
        "norad_id": 33773,
        "name": "IRIDIUM 33 DEB",
        "group": "iridium-33-debris",
        "lat": -63.18900543792303,
        "lon": 51.24718470119652,
        "alt_km": 763.9113500682688,
        "timestamp": "2025-12-17T21:39:46.074698+00:00",
        "meta_object_name": "IRIDIUM 33 DEB",
        "meta_object_id": "1997-051L",
        "meta_epoch": "2025-12-17T15:18:03.797280",
        "meta_mean_motion": 14.43267546,
        "meta_eccentricity": 0.00129084,
        "meta_inclination": 86.4007,
        "meta_ra_of_asc_node": 58.5141,
        "meta_arg_of_pericenter": 132.086,
        "meta_mean_anomaly": 228.1441,
        "meta_ephemeris_type": 0,
        "meta_classification_type": "U",
        "meta_norad_cat_id": 33773,
        "meta_element_set_no": 999,
        "meta_rev_at_epoch": 88418,
        "meta_bstar": 0.0002460168,
        "meta_mean_motion_dot": 8.48e-06,
        "meta_mean_motion_ddot": 0,
        "tle_line1": "1 33773U 97051L   25351.63754395  .00000848  00000+0  24602-3 0  9999",
        "tle_line2": "2 33773  86.4007  58.5141 0012908 132.0860 228.1441 14.43267546884187"
      },
      "geometry": {
        "type": "Point",
        "coordinates": [
          51.24718470119652,
          -63.18900543792303
        ]
      }
    },
    {
      "type": "Feature",
      "properties": {
        "norad_id": 33775,
        "name": "IRIDIUM 33 DEB",
        "group": "iridium-33-debris",
        "lat": -13.247989538728286,
        "lon": 46.491603724438434,
        "alt_km": 767.5507385683022,
        "timestamp": "2025-12-17T21:39:46.074712+00:00",
        "meta_object_name": "IRIDIUM 33 DEB",
        "meta_object_id": "1997-051N",
        "meta_epoch": "2025-12-17T15:38:54.873600",
        "meta_mean_motion": 14.41478888,
        "meta_eccentricity": 0.00147915,
        "meta_inclination": 86.3633,
        "meta_ra_of_asc_node": 47.4565,
        "meta_arg_of_pericenter": 139.7829,
        "meta_mean_anomaly": 347.5614,
        "meta_ephemeris_type": 0,
        "meta_classification_type": "U",
        "meta_norad_cat_id": 33775,
        "meta_element_set_no": 999,
        "meta_rev_at_epoch": 88211,
        "meta_bstar": 0.00025546522,
        "meta_mean_motion_dot": 8.5e-06,
        "meta_mean_motion_ddot": 0,
        "tle_line1": "1 33775U 97051N   25351.65202400  .00000850  00000+0  25547-3 0  9990",
        "tle_line2": "2 33775  86.3633  47.4565 0014791 139.7829 347.5614 14.41478888882111"
      },
      "geometry": {
        "type": "Point",
        "coordinates": [
          46.491603724438434,
          -13.247989538728286
        ]
      }
    },
    {
      "type": "Feature",
      "properties": {
        "norad_id": 33776,
        "name": "IRIDIUM 33 DEB",
        "group": "iridium-33-debris",
        "lat": 23.319691241249046,
        "lon": -102.94559071518225,
        "alt_km": 753.7232611604077,
        "timestamp": "2025-12-17T21:39:46.074725+00:00",
        "meta_object_name": "IRIDIUM 33 DEB",
        "meta_object_id": "1997-051P",
        "meta_epoch": "2025-12-17T12:38:19.775328",
        "meta_mean_motion": 14.38243576,
        "meta_eccentricity": 0.00149227,
        "meta_inclination": 86.4037,
        "meta_ra_of_asc_node": 78.7658,
        "meta_arg_of_pericenter": 174.7645,
        "meta_mean_anomaly": 196.2457,
        "meta_ephemeris_type": 0,
        "meta_classification_type": "U",
        "meta_norad_cat_id": 33776,
        "meta_element_set_no": 999,
        "meta_rev_at_epoch": 88151,
        "meta_bstar": 0.00023132368,
        "meta_mean_motion_dot": 7.23e-06,
        "meta_mean_motion_ddot": 0,
        "tle_line1": "1 33776U 97051P   25351.52661777  .00000723  00000+0  23132-3 0  9990",
        "tle_line2": "2 33776  86.4037  78.7658 0014922 174.7645 196.2457 14.38243576881519"
      },
      "geometry": {
        "type": "Point",
        "coordinates": [
          -102.94559071518225,
          23.319691241249046
        ]
      }
    },
    {
      "type": "Feature",
      "properties": {
        "norad_id": 33777,
        "name": "IRIDIUM 33 DEB",
        "group": "iridium-33-debris",
        "lat": -85.39177179083147,
        "lon": -95.24841856356241,
        "alt_km": 711.7840756077885,
        "timestamp": "2025-12-17T21:39:46.074737+00:00",
        "meta_object_name": "IRIDIUM 33 DEB",
        "meta_object_id": "1997-051Q",
        "meta_epoch": "2025-12-17T13:50:23.310816",
        "meta_mean_motion": 14.55648515,
        "meta_eccentricity": 0.00055002,
        "meta_inclination": 86.3783,
        "meta_ra_of_asc_node": 33.0997,
        "meta_arg_of_pericenter": 226.9281,
        "meta_mean_anomaly": 133.1467,
        "meta_ephemeris_type": 0,
        "meta_classification_type": "U",
        "meta_norad_cat_id": 33777,
        "meta_element_set_no": 999,
        "meta_rev_at_epoch": 88604,
        "meta_bstar": 0.00061320951,
        "meta_mean_motion_dot": 2.697e-05,
        "meta_mean_motion_ddot": 0,
        "tle_line1": "1 33777U 97051Q   25351.57665869  .00002697  00000+0  61321-3 0  9996",
        "tle_line2": "2 33777  86.3783  33.0997 0005500 226.9281 133.1467 14.55648515886040"
      },
      "geometry": {
        "type": "Point",
        "coordinates": [
          -95.24841856356241,
          -85.39177179083147
        ]
      }
    },
    {
      "type": "Feature",
      "properties": {
        "norad_id": 33850,
        "name": "IRIDIUM 33 DEB",
        "group": "iridium-33-debris",
        "lat": -19.708260223453966,
        "lon": 26.646164503749777,
        "alt_km": 765.407373235169,
        "timestamp": "2025-12-17T21:39:46.074748+00:00",
        "meta_object_name": "IRIDIUM 33 DEB",
        "meta_object_id": "1997-051T",
        "meta_epoch": "2025-12-17T15:39:31.146912",
        "meta_mean_motion": 14.4215674,
        "meta_eccentricity": 0.00127702,
        "meta_inclination": 86.3412,
        "meta_ra_of_asc_node": 28.0671,
        "meta_arg_of_pericenter": 146.141,
        "meta_mean_anomaly": 336.2518,
        "meta_ephemeris_type": 0,
        "meta_classification_type": "U",
        "meta_norad_cat_id": 33850,
        "meta_element_set_no": 999,
        "meta_rev_at_epoch": 88223,
        "meta_bstar": 0.00026741621,
        "meta_mean_motion_dot": 9e-06,
        "meta_mean_motion_ddot": 0,
        "tle_line1": "1 33850U 97051T   25351.65244383  .00000900  00000+0  26742-3 0  9994",
        "tle_line2": "2 33850  86.3412  28.0671 0012770 146.1410 336.2518 14.42156740882238"
      },
      "geometry": {
        "type": "Point",
        "coordinates": [
          26.646164503749777,
          -19.708260223453966
        ]
      }
    },
    {
      "type": "Feature",
      "properties": {
        "norad_id": 33853,
        "name": "IRIDIUM 33 DEB",
        "group": "iridium-33-debris",
        "lat": -73.32800374896244,
        "lon": -25.96479546497093,
        "alt_km": 841.3379919492736,
        "timestamp": "2025-12-17T21:39:46.074759+00:00",
        "meta_object_name": "IRIDIUM 33 DEB",
        "meta_object_id": "1997-051W",
        "meta_epoch": "2025-12-17T10:44:52.473120",
        "meta_mean_motion": 13.99089298,
        "meta_eccentricity": 0.02070958,
        "meta_inclination": 85.9998,
        "meta_ra_of_asc_node": 347.7466,
        "meta_arg_of_pericenter": 221.2578,
        "meta_mean_anomaly": 293.5733,
        "meta_ephemeris_type": 0,
        "meta_classification_type": "U",
        "meta_norad_cat_id": 33853,
        "meta_element_set_no": 999,
        "meta_rev_at_epoch": 85411,
        "meta_bstar": 0.001410633,
        "meta_mean_motion_dot": 2.469e-05,
        "meta_mean_motion_ddot": 0,
        "tle_line1": "1 33853U 97051W   25351.44782955  .00002469  00000+0  14106-2 0  9998",
        "tle_line2": "2 33853  85.9998 347.7466 0207095 221.2578 293.5733 13.99089298854118"
      },
      "geometry": {
        "type": "Point",
        "coordinates": [
          -25.96479546497093,
          -73.32800374896244
        ]
      }
    }
  ]
}